[
    {
        "Altitude(m)": 624792.8031359985,
        "Argument of Periapsis(deg)": 0.0,
        "Eccentricity": 0.0,
        "Inclination(deg)": 60.0,
        "Latitude(deg)": -59.147181747196065,
        "Longitude(deg)": -55.97352052996126,
        "Mean Anomaly(deg)": -98.18179999999997,
        "RAAN(deg)": 150.0,
        "Satellite Name": "Test1 676",
        "Satellite Number": 676,
        "Semi-Major Axis(m)": 6980739.136638005,
        "Time(s)": 0
    },
    {
        "Altitude(m)": 624842.1947827495,
        "Argument of Periapsis(deg)": 0.00010418945913296404,
        "Eccentricity": 0.0,
        "Inclination(deg)": 60.0,
        "Latitude(deg)": -59.289264409953,
        "Longitude(deg)": -54.844012928718904,
        "Mean Anomaly(deg)": -97.56169385453812,
        "RAAN(deg)": 149.99957995086027,
        "Satellite Name": "Test1 676",
        "Satellite Number": 676,
        "Semi-Major Axis(m)": 6980739.136638005,
        "Time(s)": 10
    }
]